LEMUR-2-WILSON          
1 62694U 25009CP  26060.46360942  .00002772  00000+0  26116-3 0  9997
2 62694  97.7090 140.8374 0004155  56.2540 303.9076 14.94621236 61266
LEMUR-2-STAR-FOX        
1 62696U 25009CR  26060.21174122  .00011376  00000+0  90276-3 0  9993
2 62696  97.7073 142.7273 0001936 169.4150 190.7115 15.00666453 61350
LEMUR-2-ARIANNA         
1 62699U 25009CU  26060.20664530  .00009141  00000+0  72590-3 0  9998
2 62699  97.7036 142.5876 0004266 163.0533 197.0833 15.00697472 61355
LEMUR-2-ALISIA          
1 62706U 25009DB  26060.20503047  .00009317  00000+0  73454-3 0  9997
2 62706  97.7082 143.2338 0006140 178.3850 181.7395 15.00961934 83950
LEMUR-2-ROUNDTRIPPER    
1 62711U 25009DG  26060.23397802  .00010891  00000+0  83756-3 0  9991
2 62711  97.7310 143.2075 0004448 150.5493 209.5982 15.01874332 61416
LEMUR-2-MYNAMEISJEFF    
1 62712U 25009DH  26060.23248174  .00010832  00000+0  83336-3 0  9998
2 62712  97.7362 143.5228 0003572 180.3413 179.7810 15.01862015 61410
LEMUR-2-LEIA-PHILIP     
1 63246U 25052AN  26060.25752861  .00007776  00000+0  68903-3 0  9990
2 63246  97.6979 313.9912 0002402 204.1090 156.0019 14.96504919 52526
LEMUR-2-LIA-MARTIN      
1 63248U 25052AQ  26060.27988112  .00006127  00000+0  54169-3 0  9992
2 63248  97.7028 314.3681 0002788 164.0696 196.0613 14.96680125 52534
LEMUR-2-DELOITTE-1      
1 63259U 25052BB  26060.24863688  .00006235  00000+0  55104-3 0  9991
2 63259  97.7054 314.6478 0003126  96.1658 263.9920 14.96682553 52545
LEMUR-2-EMERSONROSE     
1 63261U 25052BD  26060.26288208  .00007496  00000+0  63770-3 0  9993
2 63261  97.7050 315.0044 0003507  69.6017 290.5582 14.98101996 52577
LEMUR-2-MARACHE-FRAN    
1 63262U 25052BE  26060.49730264  .00008059  00000+0  67387-3 0  9997
2 63262  97.7010 315.4238 0002429  42.1151 318.0258 14.98749337 52629
LEMUR-2-THEFALCONER     
1 63264U 25052BG  26060.25888678  .00005816  00000+0  51813-3 0  9991
2 63264  97.7004 314.3950 0003020  42.8526 317.2931 14.96396620 52545
LEMUR-2-UNTITLED-SC     
1 63351U 25061A   26060.42474104  .00005949  00000+0  34343-3 0  9998
2 63351  97.5533  36.7031 0017272 277.9477  81.9794 15.12586541 51297
LEMUR-2-ESPERANZA       
1 63352U 25061B   26060.47409925  .00006074  00000+0  34984-3 0  9994
2 63352  97.5542  36.8216 0016844 277.1812  82.7503 15.12666693 51309
LEMUR-2-KREMPEL-BRO2    
1 63353U 25061C   26060.46525939  .00005930  00000+0  33776-3 0  9996
2 63353  97.5593  37.2091 0017688 269.0901  90.8303 15.13070236 51310
LEMUR-2-THERMORAPTOR    
1 63354U 25061D   26060.45230282  .00005557  00000+0  31615-3 0  9995
2 63354  97.5596  37.2529 0017315 267.9551  91.9697 15.13146485 51313
LEMUR-2-NEUROSPICY      
1 63355U 25061E   26060.43206419  .00005940  00000+0  33693-3 0  9993
2 63355  97.5518  36.9433 0015231 272.3537  87.5950 15.13249759 51318
LEMUR-2-TILLINFINITY    
1 63356U 25061F   26060.44272114  .00005630  00000+0  31428-3 0  9990
2 63356  97.5507  37.1691 0016448 259.1801 100.7579 15.13832532 51338
LEMUR-2-KREMPEL-BRO1    
1 63357U 25061G   26060.46903417  .00005906  00000+0  33089-3 0  9991
2 63357  97.5512  37.1399 0017164 260.2694  99.6598 15.13667156 51334
LEMUR-2-LANGER2SPACE    
1 63358U 25061H   26060.47396142  .00006321  00000+0  35729-3 0  9999
2 63358  97.5514  37.0025 0015136 270.2498  89.6998 15.13353249 51329
LEMUR-2-BALTO           
1 63395U 25052BH  26060.48359514  .00007416  00000+0  61989-3 0  9996
2 63395  97.7014 315.4071 0003355  23.7859 336.3518 14.98792680 52625
