OBJECT_NAME,OBJECT_ID,EPOCH,MEAN_MOTION,ECCENTRICITY,INCLINATION,RA_OF_ASC_NODE,ARG_OF_PERICENTER,MEAN_ANOMALY,EPHEMERIS_TYPE,CLASSIFICATION_TYPE,NORAD_CAT_ID,ELEMENT_SET_NO,REV_AT_EPOCH,BSTAR,MEAN_MOTION_DOT,MEAN_MOTION_DDOT
LEMUR-2-WILSON,2025-009CP,2026-03-01T11:07:35.853888,14.94621236,.0004155,97.7090,140.8374,56.2540,303.9076,0,U,62694,999,6126,.26116E-3,.2772E-4,0
LEMUR-2-STAR-FOX,2025-009CR,2026-03-01T05:04:54.441408,15.00666453,.0001936,97.7073,142.7273,169.4150,190.7115,0,U,62696,999,6135,.90276E-3,.11376E-3,0
LEMUR-2-ARIANNA,2025-009CU,2026-03-01T04:57:34.153920,15.00697472,.0004266,97.7036,142.5876,163.0533,197.0833,0,U,62699,999,6135,.7259E-3,.9141E-4,0
LEMUR-2-ALISIA,2025-009DB,2026-03-01T04:55:14.632608,15.00961934,.000614,97.7082,143.2338,178.3850,181.7395,0,U,62706,999,8395,.73454E-3,.9317E-4,0
LEMUR-2-ROUNDTRIPPER,2025-009DG,2026-03-01T05:36:55.700928,15.01874332,.0004448,97.7310,143.2075,150.5493,209.5982,0,U,62711,999,6141,.83756E-3,.10891E-3,0
LEMUR-2-MYNAMEISJEFF,2025-009DH,2026-03-01T05:34:46.422336,15.01862015,.0003572,97.7362,143.5228,180.3413,179.7810,0,U,62712,999,6141,.83336E-3,.10832E-3,0
LEMUR-2-LEIA-PHILIP,2025-052AN,2026-03-01T06:10:50.471904,14.96504919,.0002402,97.6979,313.9912,204.1090,156.0019,0,U,63246,999,5252,.68903E-3,.7776E-4,0
LEMUR-2-LIA-MARTIN,2025-052AQ,2026-03-01T06:43:01.728768,14.96680125,.0002788,97.7028,314.3681,164.0696,196.0613,0,U,63248,999,5253,.54169E-3,.6127E-4,0
LEMUR-2-DELOITTE-1,2025-052BB,2026-03-01T05:58:02.226432,14.96682553,.0003126,97.7054,314.6478,96.1658,263.9920,0,U,63259,999,5254,.55104E-3,.6235E-4,0
LEMUR-2-EMERSONROSE,2025-052BD,2026-03-01T06:18:33.011712,14.98101996,.0003507,97.7050,315.0044,69.6017,290.5582,0,U,63261,999,5257,.6377E-3,.7496E-4,0
LEMUR-2-MARACHE-FRAN,2025-052BE,2026-03-01T11:56:06.948096,14.98749337,.0002429,97.7010,315.4238,42.1151,318.0258,0,U,63262,999,5262,.67387E-3,.8059E-4,0
LEMUR-2-THEFALCONER,2025-052BG,2026-03-01T06:12:47.817792,14.96396620,.000302,97.7004,314.3950,42.8526,317.2931,0,U,63264,999,5254,.51813E-3,.5816E-4,0
LEMUR-2-UNTITLED-SC,2025-061A,2026-03-01T10:11:37.625856,15.12586541,.0017272,97.5533,36.7031,277.9477,81.9794,0,U,63351,999,5129,.34343E-3,.5949E-4,0
LEMUR-2-ESPERANZA,2025-061B,2026-03-01T11:22:42.175200,15.12666693,.0016844,97.5542,36.8216,277.1812,82.7503,0,U,63352,999,5130,.34984E-3,.6074E-4,0
LEMUR-2-KREMPEL-BRO2,2025-061C,2026-03-01T11:09:58.411296,15.13070236,.0017688,97.5593,37.2091,269.0901,90.8303,0,U,63353,999,5131,.33776E-3,.593E-4,0
LEMUR-2-THERMORAPTOR,2025-061D,2026-03-01T10:51:18.963648,15.13146485,.0017315,97.5596,37.2529,267.9551,91.9697,0,U,63354,999,5131,.31615E-3,.5557E-4,0
LEMUR-2-NEUROSPICY,2025-061E,2026-03-01T10:22:10.346016,15.13249759,.0015231,97.5518,36.9433,272.3537,87.5950,0,U,63355,999,5131,.33693E-3,.594E-4,0
LEMUR-2-TILLINFINITY,2025-061F,2026-03-01T10:37:31.106496,15.13832532,.0016448,97.5507,37.1691,259.1801,100.7579,0,U,63356,999,5133,.31428E-3,.563E-4,0
LEMUR-2-KREMPEL-BRO1,2025-061G,2026-03-01T11:15:24.552288,15.13667156,.0017164,97.5512,37.1399,260.2694,99.6598,0,U,63357,999,5133,.33089E-3,.5906E-4,0
LEMUR-2-LANGER2SPACE,2025-061H,2026-03-01T11:22:30.266688,15.13353249,.0015136,97.5514,37.0025,270.2498,89.6998,0,U,63358,999,5132,.35729E-3,.6321E-4,0
LEMUR-2-BALTO,2025-052BH,2026-03-01T11:36:22.620096,14.98792680,.0003355,97.7014,315.4071,23.7859,336.3518,0,U,63395,999,5262,.61989E-3,.7416E-4,0